CCSDS_OMM_VERS = 2.0
CREATION_DATE  = 
ORIGINATOR     = 

OBJECT_NAME    = 1998-067XK
OBJECT_ID      = 1998-067XK
CENTER_NAME    = EARTH
REF_FRAME      = TEME
TIME_SYSTEM    = UTC
MEAN_ELEMENT_THEORY = SGP/SGP4

EPOCH          = 2026-01-31T00:08:35.716416
MEAN_MOTION    = 15.80226512
ECCENTRICITY   = .0004
INCLINATION    = 51.6232
RA_OF_ASC_NODE = 244.9901
ARG_OF_PERICENTER = 189.4791
MEAN_ANOMALY   = 170.6136

EPHEMERIS_TYPE = 0
CLASSIFICATION_TYPE = U
NORAD_CAT_ID   = 65731
ELEMENT_SET_NO = 999
REV_AT_EPOCH   = 2089
BSTAR          = .95989E-3
MEAN_MOTION_DOT = .18767E-2
MEAN_MOTION_DDOT = 0

CCSDS_OMM_VERS = 2.0
CREATION_DATE  = 
ORIGINATOR     = 

OBJECT_NAME    = RSP-03
OBJECT_ID      = 1998-067XL
CENTER_NAME    = EARTH
REF_FRAME      = TEME
TIME_SYSTEM    = UTC
MEAN_ELEMENT_THEORY = SGP/SGP4

EPOCH          = 2026-01-30T20:03:12.729600
MEAN_MOTION    = 15.91475705
ECCENTRICITY   = .00053328
INCLINATION    = 51.6184
RA_OF_ASC_NODE = 243.0468
ARG_OF_PERICENTER = 212.7899
MEAN_ANOMALY   = 147.2777

EPHEMERIS_TYPE = 0
CLASSIFICATION_TYPE = U
NORAD_CAT_ID   = 65732
ELEMENT_SET_NO = 999
REV_AT_EPOCH   = 2091
BSTAR          = .12908576E-2
MEAN_MOTION_DOT = .424853E-2
MEAN_MOTION_DDOT = .79895939E-4

CCSDS_OMM_VERS = 2.0
CREATION_DATE  = 
ORIGINATOR     = 

OBJECT_NAME    = YOTSUBA-KULOVER
OBJECT_ID      = 1998-067XN
CENTER_NAME    = EARTH
REF_FRAME      = TEME
TIME_SYSTEM    = UTC
MEAN_ELEMENT_THEORY = SGP/SGP4

EPOCH          = 2026-01-30T17:40:32.702304
MEAN_MOTION    = 15.68647334
ECCENTRICITY   = .00043281
INCLINATION    = 51.6252
RA_OF_ASC_NODE = 252.2198
ARG_OF_PERICENTER = 192.8598
MEAN_ANOMALY   = 167.2289

EPHEMERIS_TYPE = 0
CLASSIFICATION_TYPE = U
NORAD_CAT_ID   = 65941
ELEMENT_SET_NO = 999
REV_AT_EPOCH   = 1752
BSTAR          = .88289108E-3
MEAN_MOTION_DOT = .103274E-2
MEAN_MOTION_DDOT = 0

CCSDS_OMM_VERS = 2.0
CREATION_DATE  = 
ORIGINATOR     = 

OBJECT_NAME    = BOTAN
OBJECT_ID      = 1998-067XP
CENTER_NAME    = EARTH
REF_FRAME      = TEME
TIME_SYSTEM    = UTC
MEAN_ELEMENT_THEORY = SGP/SGP4

EPOCH          = 2026-01-30T20:50:57.014880
MEAN_MOTION    = 15.79207269
ECCENTRICITY   = .00054417
INCLINATION    = 51.6192
RA_OF_ASC_NODE = 248.5734
ARG_OF_PERICENTER = 208.6473
MEAN_ANOMALY   = 151.4230

EPHEMERIS_TYPE = 0
CLASSIFICATION_TYPE = U
NORAD_CAT_ID   = 65942
ELEMENT_SET_NO = 999
REV_AT_EPOCH   = 1758
BSTAR          = .12277883E-2
MEAN_MOTION_DOT = .230561E-2
MEAN_MOTION_DDOT = 0

CCSDS_OMM_VERS = 2.0
CREATION_DATE  = 
ORIGINATOR     = 

OBJECT_NAME    = E-KAGAKU-1
OBJECT_ID      = 1998-067XQ
CENTER_NAME    = EARTH
REF_FRAME      = TEME
TIME_SYSTEM    = UTC
MEAN_ELEMENT_THEORY = SGP/SGP4

EPOCH          = 2026-01-30T20:44:28.519008
MEAN_MOTION    = 15.68604781
ECCENTRICITY   = .00032769
INCLINATION    = 51.6269
RA_OF_ASC_NODE = 251.5815
ARG_OF_PERICENTER = 204.2872
MEAN_ANOMALY   = 155.7971

EPHEMERIS_TYPE = 0
CLASSIFICATION_TYPE = U
NORAD_CAT_ID   = 65943
ELEMENT_SET_NO = 999
REV_AT_EPOCH   = 1754
BSTAR          = .81352104E-3
MEAN_MOTION_DOT = .94832E-3
MEAN_MOTION_DDOT = 0

CCSDS_OMM_VERS = 2.0
CREATION_DATE  = 
ORIGINATOR     = 

OBJECT_NAME    = HRC MONOBLOCK CAMERA
OBJECT_ID      = 1998-067XR
CENTER_NAME    = EARTH
REF_FRAME      = TEME
TIME_SYSTEM    = UTC
MEAN_ELEMENT_THEORY = SGP/SGP4

EPOCH          = 2026-01-31T00:54:38.652768
MEAN_MOTION    = 15.58357644
ECCENTRICITY   = .0000248
INCLINATION    = 51.6280
RA_OF_ASC_NODE = 254.9901
ARG_OF_PERICENTER = 34.9289
MEAN_ANOMALY   = 325.1720

EPHEMERIS_TYPE = 0
CLASSIFICATION_TYPE = U
NORAD_CAT_ID   = 66052
ELEMENT_SET_NO = 999
REV_AT_EPOCH   = 1651
BSTAR          = .5E-3
MEAN_MOTION_DOT = .38402E-3
MEAN_MOTION_DDOT = 0

CCSDS_OMM_VERS = 2.0
CREATION_DATE  = 
ORIGINATOR     = 

OBJECT_NAME    = HTV-X1
OBJECT_ID      = 2025-241A
CENTER_NAME    = EARTH
REF_FRAME      = TEME
TIME_SYSTEM    = UTC
MEAN_ELEMENT_THEORY = SGP/SGP4

EPOCH          = 2026-01-30T21:17:13.546176
MEAN_MOTION    = 15.48295574
ECCENTRICITY   = .00110817
INCLINATION    = 51.6324
RA_OF_ASC_NODE = 259.2282
ARG_OF_PERICENTER = 46.9871
MEAN_ANOMALY   = 313.2044

EPHEMERIS_TYPE = 0
CLASSIFICATION_TYPE = U
NORAD_CAT_ID   = 66174
ELEMENT_SET_NO = 999
REV_AT_EPOCH   = 51
BSTAR          = .16121789E-3
MEAN_MOTION_DOT = .824E-4
MEAN_MOTION_DDOT = 0

CCSDS_OMM_VERS = 2.0
CREATION_DATE  = 
ORIGINATOR     = 

OBJECT_NAME    = SZ-21 MODULE
OBJECT_ID      = 2025-246C
CENTER_NAME    = EARTH
REF_FRAME      = TEME
TIME_SYSTEM    = UTC
MEAN_ELEMENT_THEORY = SGP/SGP4

EPOCH          = 2026-01-31T03:43:03.577728
MEAN_MOTION    = 15.65726636
ECCENTRICITY   = .0003412
INCLINATION    = 41.4761
RA_OF_ASC_NODE = 73.9156
ARG_OF_PERICENTER = 260.2908
MEAN_ANOMALY   = 99.7547

EPHEMERIS_TYPE = 0
CLASSIFICATION_TYPE = U
NORAD_CAT_ID   = 66515
ELEMENT_SET_NO = 999
REV_AT_EPOCH   = 1218
BSTAR          = .28819E-3
MEAN_MOTION_DOT = .29762E-3
MEAN_MOTION_DDOT = 0

CCSDS_OMM_VERS = 2.0
CREATION_DATE  = 
ORIGINATOR     = 

OBJECT_NAME    = SHENZHOU-22
OBJECT_ID      = 2025-272A
CENTER_NAME    = EARTH
REF_FRAME      = TEME
TIME_SYSTEM    = UTC
MEAN_ELEMENT_THEORY = SGP/SGP4

EPOCH          = 2026-01-30T04:06:26.862336
MEAN_MOTION    = 15.61350410
ECCENTRICITY   = .00090867
INCLINATION    = 41.4674
RA_OF_ASC_NODE = 82.2287
ARG_OF_PERICENTER = 36.5911
MEAN_ANOMALY   = 323.5548

EPHEMERIS_TYPE = 0
CLASSIFICATION_TYPE = U
NORAD_CAT_ID   = 66645
ELEMENT_SET_NO = 999
REV_AT_EPOCH   = 26764
BSTAR          = .3748084E-3
MEAN_MOTION_DOT = .3269E-3
MEAN_MOTION_DDOT = 0

CCSDS_OMM_VERS = 2.0
CREATION_DATE  = 
ORIGINATOR     = 

OBJECT_NAME    = SOYUZ-MS 28
OBJECT_ID      = 2025-275A
CENTER_NAME    = EARTH
REF_FRAME      = TEME
TIME_SYSTEM    = UTC
MEAN_ELEMENT_THEORY = SGP/SGP4

EPOCH          = 2026-01-30T21:17:13.546176
MEAN_MOTION    = 15.48295574
ECCENTRICITY   = .0011082
INCLINATION    = 51.6324
RA_OF_ASC_NODE = 259.2282
ARG_OF_PERICENTER = 46.9871
MEAN_ANOMALY   = 313.2044

EPHEMERIS_TYPE = 0
CLASSIFICATION_TYPE = U
NORAD_CAT_ID   = 66664
ELEMENT_SET_NO = 999
REV_AT_EPOCH   = 55047
BSTAR          = .16122E-3
MEAN_MOTION_DOT = .824E-4
MEAN_MOTION_DDOT = 0

CCSDS_OMM_VERS = 2.0
CREATION_DATE  = 
ORIGINATOR     = 

OBJECT_NAME    = DUPLEX
OBJECT_ID      = 1998-067XS
CENTER_NAME    = EARTH
REF_FRAME      = TEME
TIME_SYSTEM    = UTC
MEAN_ELEMENT_THEORY = SGP/SGP4

EPOCH          = 2026-01-30T22:09:35.235936
MEAN_MOTION    = 15.53569248
ECCENTRICITY   = .0001559
INCLINATION    = 51.6299
RA_OF_ASC_NODE = 257.9730
ARG_OF_PERICENTER = 80.7038
MEAN_ANOMALY   = 279.4129

EPHEMERIS_TYPE = 0
CLASSIFICATION_TYPE = U
NORAD_CAT_ID   = 66906
ELEMENT_SET_NO = 999
REV_AT_EPOCH   = 925
BSTAR          = .44212E-3
MEAN_MOTION_DOT = .28303E-3
MEAN_MOTION_DDOT = 0

CCSDS_OMM_VERS = 2.0
CREATION_DATE  = 
ORIGINATOR     = 

OBJECT_NAME    = 1998-067XT
OBJECT_ID      = 1998-067XT
CENTER_NAME    = EARTH
REF_FRAME      = TEME
TIME_SYSTEM    = UTC
MEAN_ELEMENT_THEORY = SGP/SGP4

EPOCH          = 2026-01-31T00:19:31.717920
MEAN_MOTION    = 15.59761817
ECCENTRICITY   = .0002883
INCLINATION    = 51.6275
RA_OF_ASC_NODE = 256.3251
ARG_OF_PERICENTER = 157.7778
MEAN_ANOMALY   = 202.3340

EPHEMERIS_TYPE = 0
CLASSIFICATION_TYPE = U
NORAD_CAT_ID   = 66907
ELEMENT_SET_NO = 999
REV_AT_EPOCH   = 928
BSTAR          = .98232E-3
MEAN_MOTION_DOT = .80538E-3
MEAN_MOTION_DDOT = 0

